[{"OBJECT_NAME":"YAOGAN-30 03C","OBJECT_ID":"2017-075C","EPOCH":"2026-03-09T16:55:34.578048","MEAN_MOTION":15.02171938,"ECCENTRICITY":0.00026669,"INCLINATION":34.9942,"RA_OF_ASC_NODE":156.283,"ARG_OF_PERICENTER":259.4663,"MEAN_ANOMALY":100.5744,"EPHEMERIS_TYPE":0,"CLASSIFICATION_TYPE":"U","NORAD_CAT_ID":43030,"ELEMENT_SET_NO":999,"REV_AT_EPOCH":45245,"BSTAR":0.00030362499,"MEAN_MOTION_DOT":4.051e-5,"MEAN_MOTION_DDOT":0},{"OBJECT_NAME":"STARLINK-34746","OBJECT_ID":"2025-152F","EPOCH":"2026-03-09T14:13:47.414496","MEAN_MOTION":15.0564453,"ECCENTRICITY":0.0001778,"INCLINATION":97.6018,"RA_OF_ASC_NODE":285.425,"ARG_OF_PERICENTER":84.6912,"MEAN_ANOMALY":275.4518,"EPHEMERIS_TYPE":0,"CLASSIFICATION_TYPE":"U","NORAD_CAT_ID":64847,"ELEMENT_SET_NO":999,"REV_AT_EPOCH":3540,"BSTAR":0.00039503,"MEAN_MOTION_DOT":5.643e-5,"MEAN_MOTION_DDOT":0}]
