YAOGAN-30 03C           
1 43030U 17075C   26068.70526132  .00004051  00000+0  30362-3 0  9994
2 43030  34.9942 156.2830 0002667 259.4663 100.5744 15.02171938452452
STARLINK-34746          
1 64847U 25152F   26068.59290989  .00005643  00000+0  39503-3 0  9997
2 64847  97.6018 285.4250 0001778  84.6912 275.4518 15.05644530 35408
